CCSDS_OMM_VERS = 2.0
CREATION_DATE  = 
ORIGINATOR     = 

OBJECT_NAME    = STARLINK-37140
OBJECT_ID      = 2026-057T
CENTER_NAME    = EARTH
REF_FRAME      = TEME
TIME_SYSTEM    = UTC
MEAN_ELEMENT_THEORY = SGP/SGP4

EPOCH          = 2026-03-27T12:00:02.000160
MEAN_MOTION    = 16.06134040
ECCENTRICITY   = .00012063
INCLINATION    = 97.2802
RA_OF_ASC_NODE = 209.5055
ARG_OF_PERICENTER = 61.5103
MEAN_ANOMALY   = 60.1602

EPHEMERIS_TYPE = 0
CLASSIFICATION_TYPE = U
NORAD_CAT_ID   = 68311
ELEMENT_SET_NO = 999
REV_AT_EPOCH   = 228
BSTAR          = -.13853947E-2
MEAN_MOTION_DOT = -.1004019E-1
MEAN_MOTION_DDOT = .35490952E-3

CCSDS_OMM_VERS = 2.0
CREATION_DATE  = 
ORIGINATOR     = 

OBJECT_NAME    = STARLINK-36854
OBJECT_ID      = 2026-057U
CENTER_NAME    = EARTH
REF_FRAME      = TEME
TIME_SYSTEM    = UTC
MEAN_ELEMENT_THEORY = SGP/SGP4

EPOCH          = 2026-03-27T12:00:02.000160
MEAN_MOTION    = 16.06375612
ECCENTRICITY   = .0001401
INCLINATION    = 97.2801
RA_OF_ASC_NODE = 209.5071
ARG_OF_PERICENTER = 57.1443
MEAN_ANOMALY   = 68.1608

EPHEMERIS_TYPE = 0
CLASSIFICATION_TYPE = U
NORAD_CAT_ID   = 68312
ELEMENT_SET_NO = 999
REV_AT_EPOCH   = 207
BSTAR          = -.13646143E-2
MEAN_MOTION_DOT = -.1003775E-1
MEAN_MOTION_DDOT = .35580766E-3

CCSDS_OMM_VERS = 2.0
CREATION_DATE  = 
ORIGINATOR     = 

OBJECT_NAME    = STARLINK-36815
OBJECT_ID      = 2026-057V
CENTER_NAME    = EARTH
REF_FRAME      = TEME
TIME_SYSTEM    = UTC
MEAN_ELEMENT_THEORY = SGP/SGP4

EPOCH          = 2026-03-27T12:00:02.000160
MEAN_MOTION    = 16.06519696
ECCENTRICITY   = .00012101
INCLINATION    = 97.2803
RA_OF_ASC_NODE = 209.5082
ARG_OF_PERICENTER = 61.5911
MEAN_ANOMALY   = 65.8863

EPHEMERIS_TYPE = 0
CLASSIFICATION_TYPE = U
NORAD_CAT_ID   = 68313
ELEMENT_SET_NO = 999
REV_AT_EPOCH   = 207
BSTAR          = -.13534599E-2
MEAN_MOTION_DOT = -.10044E-1
MEAN_MOTION_DDOT = .35685116E-3

CCSDS_OMM_VERS = 2.0
CREATION_DATE  = 
ORIGINATOR     = 

OBJECT_NAME    = STARLINK-37155
OBJECT_ID      = 2026-057W
CENTER_NAME    = EARTH
REF_FRAME      = TEME
TIME_SYSTEM    = UTC
MEAN_ELEMENT_THEORY = SGP/SGP4

EPOCH          = 2026-03-27T12:00:02.000160
MEAN_MOTION    = 16.06829685
ECCENTRICITY   = .00012921
INCLINATION    = 97.2800
RA_OF_ASC_NODE = 209.5100
ARG_OF_PERICENTER = 53.1843
MEAN_ANOMALY   = 78.8246

EPHEMERIS_TYPE = 0
CLASSIFICATION_TYPE = U
NORAD_CAT_ID   = 68314
ELEMENT_SET_NO = 999
REV_AT_EPOCH   = 212
BSTAR          = -.13250631E-2
MEAN_MOTION_DOT = -.1002367E-1
MEAN_MOTION_DDOT = .35688635E-3

CCSDS_OMM_VERS = 2.0
CREATION_DATE  = 
ORIGINATOR     = 

OBJECT_NAME    = STARLINK-37150
OBJECT_ID      = 2026-057X
CENTER_NAME    = EARTH
REF_FRAME      = TEME
TIME_SYSTEM    = UTC
MEAN_ELEMENT_THEORY = SGP/SGP4

EPOCH          = 2026-03-27T12:00:02.000160
MEAN_MOTION    = 16.06686012
ECCENTRICITY   = .00012647
INCLINATION    = 97.2801
RA_OF_ASC_NODE = 209.5092
ARG_OF_PERICENTER = 59.0526
MEAN_ANOMALY   = 70.8624

EPHEMERIS_TYPE = 0
CLASSIFICATION_TYPE = U
NORAD_CAT_ID   = 68315
ELEMENT_SET_NO = 999
REV_AT_EPOCH   = 212
BSTAR          = -.13344136E-2
MEAN_MOTION_DOT = -.1000524E-1
MEAN_MOTION_DDOT = .35503914E-3

CCSDS_OMM_VERS = 2.0
CREATION_DATE  = 
ORIGINATOR     = 

OBJECT_NAME    = STARLINK-37154
OBJECT_ID      = 2026-057Y
CENTER_NAME    = EARTH
REF_FRAME      = TEME
TIME_SYSTEM    = UTC
MEAN_ELEMENT_THEORY = SGP/SGP4

EPOCH          = 2026-03-27T12:00:02.000160
MEAN_MOTION    = 16.07138483
ECCENTRICITY   = .00011865
INCLINATION    = 97.2796
RA_OF_ASC_NODE = 209.5122
ARG_OF_PERICENTER = 67.6747
MEAN_ANOMALY   = 68.9334

EPHEMERIS_TYPE = 0
CLASSIFICATION_TYPE = U
NORAD_CAT_ID   = 68316
ELEMENT_SET_NO = 999
REV_AT_EPOCH   = 202
BSTAR          = -.12717362E-2
MEAN_MOTION_DOT = -.980804E-2
MEAN_MOTION_DDOT = .3441348E-3

CCSDS_OMM_VERS = 2.0
CREATION_DATE  = 
ORIGINATOR     = 

OBJECT_NAME    = STARLINK-37139
OBJECT_ID      = 2026-057Z
CENTER_NAME    = EARTH
REF_FRAME      = TEME
TIME_SYSTEM    = UTC
MEAN_ELEMENT_THEORY = SGP/SGP4

EPOCH          = 2026-03-27T12:00:02.000160
MEAN_MOTION    = 16.06995092
ECCENTRICITY   = .00013149
INCLINATION    = 97.2796
RA_OF_ASC_NODE = 209.5110
ARG_OF_PERICENTER = 65.0539
MEAN_ANOMALY   = 69.2841

EPHEMERIS_TYPE = 0
CLASSIFICATION_TYPE = U
NORAD_CAT_ID   = 68317
ELEMENT_SET_NO = 999
REV_AT_EPOCH   = 187
BSTAR          = -.13233092E-2
MEAN_MOTION_DOT = -.1011274E-1
MEAN_MOTION_DDOT = .36351799E-3

CCSDS_OMM_VERS = 2.0
CREATION_DATE  = 
ORIGINATOR     = 

OBJECT_NAME    = STARLINK-37113
OBJECT_ID      = 2026-057AA
CENTER_NAME    = EARTH
REF_FRAME      = TEME
TIME_SYSTEM    = UTC
MEAN_ELEMENT_THEORY = SGP/SGP4

EPOCH          = 2026-03-27T12:00:02.000160
MEAN_MOTION    = 16.07305565
ECCENTRICITY   = .00012552
INCLINATION    = 97.2796
RA_OF_ASC_NODE = 209.5131
ARG_OF_PERICENTER = 64.1802
MEAN_ANOMALY   = 74.8174

EPHEMERIS_TYPE = 0
CLASSIFICATION_TYPE = U
NORAD_CAT_ID   = 68318
ELEMENT_SET_NO = 999
REV_AT_EPOCH   = 212
BSTAR          = -.12606992E-2
MEAN_MOTION_DOT = -.982452E-2
MEAN_MOTION_DDOT = .34592839E-3

CCSDS_OMM_VERS = 2.0
CREATION_DATE  = 
ORIGINATOR     = 

OBJECT_NAME    = PROGRESS-MS 33
OBJECT_ID      = 2026-058A
CENTER_NAME    = EARTH
REF_FRAME      = TEME
TIME_SYSTEM    = UTC
MEAN_ELEMENT_THEORY = SGP/SGP4

EPOCH          = 2026-03-27T09:22:03.432864
MEAN_MOTION    = 15.48581373
ECCENTRICITY   = .00062307
INCLINATION    = 51.6344
RA_OF_ASC_NODE = 344.8561
ARG_OF_PERICENTER = 238.3142
MEAN_ANOMALY   = 121.7239

EPHEMERIS_TYPE = 0
CLASSIFICATION_TYPE = U
NORAD_CAT_ID   = 68319
ELEMENT_SET_NO = 999
REV_AT_EPOCH   = 33
BSTAR          = .24174273E-3
MEAN_MOTION_DOT = .12703E-3
MEAN_MOTION_DDOT = 0

CCSDS_OMM_VERS = 2.0
CREATION_DATE  = 
ORIGINATOR     = 

OBJECT_NAME    = CENTISPACE-1 OBJECT A
OBJECT_ID      = 2026-060A
CENTER_NAME    = EARTH
REF_FRAME      = TEME
TIME_SYSTEM    = UTC
MEAN_ELEMENT_THEORY = SGP/SGP4

EPOCH          = 2026-03-27T12:23:45.710592
MEAN_MOTION    = 14.74893358
ECCENTRICITY   = .00129492
INCLINATION    = 54.9872
RA_OF_ASC_NODE = 8.8951
ARG_OF_PERICENTER = 307.3748
MEAN_ANOMALY   = 52.6072

EPHEMERIS_TYPE = 0
CLASSIFICATION_TYPE = U
NORAD_CAT_ID   = 68350
ELEMENT_SET_NO = 999
REV_AT_EPOCH   = 72
BSTAR          = .33309315E-4
MEAN_MOTION_DOT = .16E-6
MEAN_MOTION_DDOT = 0

CCSDS_OMM_VERS = 2.0
CREATION_DATE  = 
ORIGINATOR     = 

OBJECT_NAME    = CENTISPACE-1 OBJECT B
OBJECT_ID      = 2026-060B
CENTER_NAME    = EARTH
REF_FRAME      = TEME
TIME_SYSTEM    = UTC
MEAN_ELEMENT_THEORY = SGP/SGP4

EPOCH          = 2026-03-26T11:59:46.275360
MEAN_MOTION    = 14.74920000
ECCENTRICITY   = .0012921
INCLINATION    = 54.9834
RA_OF_ASC_NODE = 13.0446
ARG_OF_PERICENTER = 301.6406
MEAN_ANOMALY   = 58.3332

EPHEMERIS_TYPE = 0
CLASSIFICATION_TYPE = U
NORAD_CAT_ID   = 68351
ELEMENT_SET_NO = 999
REV_AT_EPOCH   = 57
BSTAR          = .33361247E-4
MEAN_MOTION_DOT = .16E-6
MEAN_MOTION_DDOT = 0

CCSDS_OMM_VERS = 2.0
CREATION_DATE  = 
ORIGINATOR     = 

OBJECT_NAME    = CENTISPACE-1 OBJECT C
OBJECT_ID      = 2026-060C
CENTER_NAME    = EARTH
REF_FRAME      = TEME
TIME_SYSTEM    = UTC
MEAN_ELEMENT_THEORY = SGP/SGP4

EPOCH          = 2026-03-27T12:22:46.000416
MEAN_MOTION    = 14.75105443
ECCENTRICITY   = .00124328
INCLINATION    = 54.9839
RA_OF_ASC_NODE = 8.8941
ARG_OF_PERICENTER = 310.8230
MEAN_ANOMALY   = 49.1691

EPHEMERIS_TYPE = 0
CLASSIFICATION_TYPE = U
NORAD_CAT_ID   = 68352
ELEMENT_SET_NO = 999
REV_AT_EPOCH   = 72
BSTAR          = .3334566E-4
MEAN_MOTION_DOT = .17E-6
MEAN_MOTION_DDOT = 0

