STARLINK-37140          
1 68311U 26057T   26086.50002315 -.01004019  35491-3 -13854-2 0  9992
2 68311  97.2802 209.5055 0001206  61.5103  60.1602 16.06134040  2282
STARLINK-36854          
1 68312U 26057U   26086.50002315 -.01003775  35581-3 -13646-2 0  9990
2 68312  97.2801 209.5071 0001401  57.1443  68.1608 16.06375612  2078
STARLINK-36815          
1 68313U 26057V   26086.50002315 -.01004400  35685-3 -13535-2 0  9999
2 68313  97.2803 209.5082 0001210  61.5911  65.8863 16.06519696  2079
STARLINK-37155          
1 68314U 26057W   26086.50002315 -.01002367  35689-3 -13251-2 0  9999
2 68314  97.2800 209.5100 0001292  53.1843  78.8246 16.06829685  2126
STARLINK-37150          
1 68315U 26057X   26086.50002315 -.01000524  35504-3 -13344-2 0  9992
2 68315  97.2801 209.5092 0001264  59.0526  70.8624 16.06686012  2127
STARLINK-37154          
1 68316U 26057Y   26086.50002315 -.00980804  34413-3 -12717-2 0  9991
2 68316  97.2796 209.5122 0001186  67.6747  68.9334 16.07138483  2028
STARLINK-37139          
1 68317U 26057Z   26086.50002315 -.01011274  36352-3 -13233-2 0  9997
2 68317  97.2796 209.5110 0001314  65.0539  69.2841 16.06995092  1875
STARLINK-37113          
1 68318U 26057AA  26086.50002315 -.00982452  34593-3 -12607-2 0  9991
2 68318  97.2796 209.5131 0001255  64.1802  74.8174 16.07305565  2127
PROGRESS-MS 33          
1 68319U 26058A   26086.39031751  .00012703  00000+0  24174-3 0  9992
2 68319  51.6344 344.8561 0006230 238.3142 121.7239 15.48581373   333
CENTISPACE-1 OBJECT A   
1 68350U 26060A   26086.51650128  .00000016  00000+0  33309-4 0  9994
2 68350  54.9872   8.8951 0012949 307.3748  52.6072 14.74893358   720
CENTISPACE-1 OBJECT B   
1 68351U 26060B   26085.49984115  .00000016  00000+0  33361-4 0  9995
2 68351  54.9834  13.0446 0012921 301.6406  58.3332 14.74920000   574
CENTISPACE-1 OBJECT C   
1 68352U 26060C   26086.51581019  .00000017  00000+0  33346-4 0  9990
2 68352  54.9839   8.8941 0012432 310.8230  49.1691 14.75105443   726
